[{"OBJECT_ID":"2005-041A","OBJECT_NAME":"GALAXY 15","NORAD_CAT_ID":"28884","OBJECT_TYPE":"PAYLOAD","PERIOD":"1436.087","INCLINATION":"0.0568","APOGEE":"35791.007","PERIGEE":"35781.824","ECCENTRICITY":"0.0001089","MEAN_MOTION":"1.00272431","TLE_LINE1":"1 28884U 05041A   16239.28844422  .00000050  00000-0  00000+0 0  9999","TLE_LINE2":"2 28884   0.0568 282.2553 0001089 247.7303 135.8159  1.00272431 39703","LAUNCH_DATE":"2005-10-13","LAUNCH_SITE":"FRENCH GUIANA","OWNER":"INTERNATIONAL TELECOMMUNICATIONS SATELLITE ORGANIZATION (INTELSAT)","ORBIT_TYPE":"Geosynchronous","OPERATIONAL_STATUS":"Partially operational","satInfo":{"lng":-114.71780058689347,"lat":0.3815041047051946,"elevation":-8.204008934387973,"azimuth":69.71780058689346,"range":42584.66262567284,"height":35771.65820578034,"velocity":3.0752616635314745},"x":-277,"y":119,"dx":-1.2859185362351422,"dy":-2.793500996483309},{"OBJECT_ID":"2005-041B","OBJECT_NAME":"SYRACUSE 3A","NORAD_CAT_ID":"28885","OBJECT_TYPE":"PAYLOAD","PERIOD":"1436.037","INCLINATION":"0.0082","APOGEE":"35798.152","PERIGEE":"35772.711","ECCENTRICITY":"0.0003017","MEAN_MOTION":"1.00275941","TLE_LINE1":"1 28885U 05041B   16238.83416251  .00000101  00000-0  00000+0 0  9992","TLE_LINE2":"2 28885   0.0082 115.1011 0003017  50.9937 155.7254  1.00275941 39805","LAUNCH_DATE":"2005-10-13","LAUNCH_SITE":"FRENCH GUIANA","OWNER":"FRANCE","ORBIT_TYPE":"Geosynchronous","OPERATIONAL_STATUS":"Operational","satInfo":{"lng":100.95912891224162,"lat":1.1694629383024424,"elevation":-7.4326027822827525,"azimuth":214.04087108775838,"range":42499.34655456786,"height":35772.88891453056,"velocity":3.0754521445895255},"x":294,"y":54,"dx":-0.5846702639044254,"dy":3.0193652604754933},{"OBJECT_ID":"2005-046A","OBJECT_NAME":"TELKOM 2","NORAD_CAT_ID":"28902","OBJECT_TYPE":"PAYLOAD","PERIOD":"1436.061","INCLINATION":"0.0355","APOGEE":"35792.054","PERIGEE":"35779.768","ECCENTRICITY":"0.0001457","MEAN_MOTION":"1.0027423","TLE_LINE1":"1 28902U 05046A   16238.42313179 -.00000389  00000-0  00000+0 0  9996","TLE_LINE2":"2 28902   0.0355 282.7090 0001457 241.4507  80.2697  1.00274230 39311","LAUNCH_DATE":"2005-11-16","LAUNCH_SITE":"FRENCH GUIANA","OWNER":"INDONESIA","ORBIT_TYPE":"Geosynchronous","OPERATIONAL_STATUS":"Operational","satInfo":{"lng":66.41550575925149,"lat":-0.4119208221538566,"elevation":-8.971154371314153,"azimuth":248.5844942407485,"range":42710.302516947304,"height":35810.77841677636,"velocity":3.073816775361193},"x":275,"y":-115,"dx":1.2298372449849069,"dy":2.817064060212301},{"OBJECT_ID":"2005-046B","OBJECT_NAME":"SPACEWAY 2","NORAD_CAT_ID":"28903","OBJECT_TYPE":"PAYLOAD","PERIOD":"1436.094","INCLINATION":"0.0032","APOGEE":"35787.728","PERIGEE":"35785.367","ECCENTRICITY":"2.8e-05","MEAN_MOTION":"1.00271961","TLE_LINE1":"1 28903U 05046B   16239.11229942 -.00000154  00000-0  00000+0 0  9998","TLE_LINE2":"2 28903   0.0032  18.1172 0000280 262.7482 355.2613  1.00271961 39576","LAUNCH_DATE":"2005-11-16","LAUNCH_SITE":"FRENCH GUIANA","OWNER":"UNITED STATES OF AMERICA","ORBIT_TYPE":"Geosynchronous","OPERATIONAL_STATUS":"Operational","satInfo":{"lng":-104.65096747995504,"lat":-0.572070380853378,"elevation":-9.131944371827492,"azimuth":59.650967479955,"range":42705.30396726655,"height":35787.9971477494,"velocity":3.0746844841064758},"x":-295,"y":72,"dx":-0.777680206119971,"dy":-2.9747097629540775},{"OBJECT_ID":"2005-049A","OBJECT_NAME":"INSAT 4A","NORAD_CAT_ID":"28911","OBJECT_TYPE":"PAYLOAD","PERIOD":"1436.086","INCLINATION":"0.078","APOGEE":"35804.860","PERIGEE":"35767.932","ECCENTRICITY":"0.0004379","MEAN_MOTION":"1.00272499","TLE_LINE1":"1 28911U 05049A   16238.84016785 -.00000192  00000-0  00000+0 0  9990","TLE_LINE2":"2 28911   0.0780 270.3204 0004379 315.2292 134.4081  1.00272499 39178","LAUNCH_DATE":"2005-12-21","LAUNCH_SITE":"FRENCH GUIANA","OWNER":"INDIA","ORBIT_TYPE":"Geosynchronous","OPERATIONAL_STATUS":"Operational","satInfo":{"lng":67.46189300021406,"lat":-0.9130679389136455,"elevation":-9.461707758637726,"azimuth":247.53810699978595,"range":42755.99962272103,"height":35801.54700156654,"velocity":3.0735571499514207},"x":277,"y":-110,"dx":1.1780877341179092,"dy":2.8388136333226295},{"OBJECT_ID":"2005-049B","OBJECT_NAME":"METEOSAT 9 (MSG 2)","NORAD_CAT_ID":"28912","OBJECT_TYPE":"PAYLOAD","PERIOD":"1436.196","INCLINATION":"1.6287","APOGEE":"35792.077","PERIGEE":"35785.002","ECCENTRICITY":"8.39e-05","MEAN_MOTION":"1.00264854","TLE_LINE1":"1 28912U 05049B   16239.25525866  .00000034  00000-0  00000+0 0  9996","TLE_LINE2":"2 28912   1.6287  69.0157 0000839  87.3429 280.0015  1.00264854 39164","LAUNCH_DATE":"2005-12-21","LAUNCH_SITE":"FRENCH GUIANA","OWNER":"EUROPEAN ORGANIZATION FOR THE EXPLOITATION OF METEOROLOGICAL SATELLITES","ORBIT_TYPE":"Geosynchronous","OPERATIONAL_STATUS":"Operational","satInfo":{"lng":9.704028670110867,"lat":-0.7954638806301304,"elevation":-9.349110969825555,"azimuth":305.29597132988914,"range":42733.05344883529,"height":35791.34618609601,"velocity":3.074426410692896},"x":49,"y":-282,"dx":3.030436347987626,"dy":0.5182212804984212},{"OBJECT_ID":"2005-052A","OBJECT_NAME":"EUTE 172A (GE 23)","NORAD_CAT_ID":"28924","OBJECT_TYPE":"PAYLOAD","PERIOD":"1436.111","INCLINATION":"0.0672","APOGEE":"35809.554","PERIGEE":"35764.210","ECCENTRICITY":"0.0005377","MEAN_MOTION":"1.00270766","TLE_LINE1":"1 28924U 05052A   16238.59601903 -.00000033  00000-0  00000+0 0  9996","TLE_LINE2":"2 28924   0.0672 357.1297 0005377 165.9277 197.7743  1.00270766 39060","LAUNCH_DATE":"2005-12-29","LAUNCH_SITE":"TYURATAM MISSILE AND SPACE COMPLEX","OWNER":"EUROPEAN TELECOMMUNICATIONS SATELLITE ORGANIZATION (EUTELSAT)","ORBIT_TYPE":"Geosynchronous","OPERATIONAL_STATUS":"Operational","satInfo":{"lng":90.83994873523599,"lat":0.12866258180749032,"elevation":-8.457073551683466,"azimuth":224.16005126476398,"range":42583.13891399761,"height":35742.07282407596,"velocity":3.0766803849909716},"x":299,"y":4,"dx":-0.045102121946985305,"dy":3.076349783425817},{"OBJECT_ID":"2006-003A","OBJECT_NAME":"ECHOSTAR 10","NORAD_CAT_ID":"28935","OBJECT_TYPE":"PAYLOAD","PERIOD":"1436.085","INCLINATION":"0.0627","APOGEE":"35794.609","PERIGEE":"35778.139","ECCENTRICITY":"0.0001953","MEAN_MOTION":"1.00272579","TLE_LINE1":"1 28935U 06003A   16239.21927689 -.00000084  00000-0  00000+0 0  9993","TLE_LINE2":"2 28935   0.0627 287.5997 0001953 260.4299 115.6138  1.00272579 38594","LAUNCH_DATE":"2006-02-15","LAUNCH_SITE":"SEA LAUNCH","OWNER":"UNITED STATES OF AMERICA","ORBIT_TYPE":"Geosynchronous","OPERATIONAL_STATUS":"Operational","satInfo":{"lng":-104.88746682799263,"lat":0.5400917395120965,"elevation":-8.04704578433923,"azimuth":59.887466827992625,"range":42576.51065369697,"height":35781.013460493865,"velocity":3.0749795308832812},"x":-294,"y":73,"dx":-0.7900280366849536,"dy":-2.9717595489209554},{"OBJECT_ID":"2006-003B","OBJECT_NAME":"BLOCK DM-SL R/B","NORAD_CAT_ID":"28936","OBJECT_TYPE":"ROCKET BODY","PERIOD":"656.045","INCLINATION":"0.2955","APOGEE":"35602.912","PERIGEE":"1661.126","ECCENTRICITY":"0.6785601","MEAN_MOTION":"2.19496805","TLE_LINE1":"1 28936U 06003B   16238.87054488 -.00000214 +00000-0 +00000-0 0  9999","TLE_LINE2":"2 28936 000.2955 117.3801 6785601 057.4833 001.1677 02.19496805084429","LAUNCH_DATE":"2006-02-15","LAUNCH_SITE":"SEA LAUNCH","OWNER":"SEA LAUNCH DEMO","ORBIT_TYPE":"Highly Elliptical Orbit","OPERATIONAL_STATUS":"N/A, derelict rocket body","satInfo":{"lng":-64.24162289934222,"lat":0.01917200060769235,"elevation":-8.600470046712722,"azimuth":19.241622899342193,"range":42416.45370818463,"height":35561.352574343575,"velocity":1.7525242186827543},"x":-273,"y":-124,"dx":0.7616066158027208,"dy":-1.5783841420373956},{"OBJECT_ID":"2006-004A","OBJECT_NAME":"MTSAT 2","NORAD_CAT_ID":"28937","OBJECT_TYPE":"PAYLOAD","PERIOD":"1436.106","INCLINATION":"0.0319","APOGEE":"35801.823","PERIGEE":"35771.742","ECCENTRICITY":"0.0003567","MEAN_MOTION":"1.00271121","TLE_LINE1":"1 28937U 06004A   16238.92132579 -.00000271 +00000-0 +00000-0 0  9998","TLE_LINE2":"2 28937 000.0319 090.9699 0003567 053.9453 306.3444 01.00271121038567","LAUNCH_DATE":"2006-02-18","LAUNCH_SITE":"TANEGASHIMA SPACE CENTER","OWNER":"JAPAN","ORBIT_TYPE":"Geosynchronous","OPERATIONAL_STATUS":"Operational","satInfo":{"lng":-61.60969272843803,"lat":-2.26953149930294,"elevation":-10.77684325831156,"azimuth":16.609692728438024,"range":42927.09301832248,"height":35824.91754208513,"velocity":3.0727863201664833},"x":-268,"y":-136,"dx":1.4610342804032246,"dy":-2.7032193031437366},{"OBJECT_ID":"2006-007A","OBJECT_NAME":"SPAINSAT","NORAD_CAT_ID":"28945","OBJECT_TYPE":"PAYLOAD","PERIOD":"1436.082","INCLINATION":"0.0562","APOGEE":"35807.218","PERIGEE":"35765.399","ECCENTRICITY":"0.0004959","MEAN_MOTION":"1.00272813","TLE_LINE1":"1 28945U 06007A   16239.15320924 -.00000244  00000-0  00000+0 0  9998","TLE_LINE2":"2 28945   0.0562 257.7994 0004959 279.2816 182.9149  1.00272813 38311","LAUNCH_DATE":"2006-03-11","LAUNCH_SITE":"FRENCH GUIANA","OWNER":"SPAIN","ORBIT_TYPE":"Geosynchronous","OPERATIONAL_STATUS":"Operational","satInfo":{"lng":-50.104838030626304,"lat":2.1580667169515144,"elevation":-6.460450356967786,"azimuth":5.104838030626282,"range":42402.489338230174,"height":35784.96053666189,"velocity":3.0741775816887085},"x":-234,"y":-184,"dx":1.9717309276941477,"dy":-2.358568411670904}]